2024-170A               
1 61195U 24170A   24288.69554804  .00001051  00000+0  62474-3 0  9993
2 61195  44.8584 348.7584 0006056  38.6262 321.5007 14.13415205  3423
2024-170B               
1 61196U 24170B   24288.69646596  .00001058  00000+0  63012-3 0  9990
2 61196  44.8597 348.7677 0006183  30.4553 329.6642 14.13277253  3428
2024-170C               
1 61197U 24170C   24288.62834052  .00001049  00000+0  62590-3 0  9990
2 61197  44.8634 349.1153 0006172  24.8749 335.2384 14.13232070  3410
2024-170D               
1 61198U 24170D   24288.70120757  .00001108  00000+0  65892-3 0  9994
2 61198  44.8621 348.8021 0006342  24.2078 335.9056 14.13097437  3447
KZ-1A R/B               
1 61199U 24170E   24288.60251627  .00149616  10844-4  13071-2 0  9995
2 61199  44.7457 334.5805 0484000 245.4643 109.5044 14.89661333  3607
STARLINK-11209 [DTC]    
1 61200U 24171A   24287.98533006 -.00001591  00000+0 -57359-5 0  9992
2 61200  53.1553 179.9743 0000123 104.2850 255.8185 15.76727112  4927
STARLINK-11257 [DTC]    
1 61201U 24171B   24288.10722144 -.00020899  00000+0 -12420-3 0  9991
2 61201  53.1559 179.3104 0001391  75.3844 284.7331 15.76692355  4034
STARLINK-11309 [DTC]    
1 61202U 24171C   24287.97556279  .00016360  00000+0  10368-3 0  9995
2 61202  53.1559 179.9108 0000798  69.8544 290.2562 15.76746626  4017
STARLINK-11292 [DTC]    
1 61203U 24171D   24287.97067544  .00019832  00000+0  12475-3 0  9996
2 61203  53.1575 179.8782 0001297  94.7370 265.3799 15.76753735  4016
STARLINK-11302 [DTC]    
1 61204U 24171E   24287.96579521  .00038088  00000+0  23543-3 0  9991
2 61204  53.1584 179.8431 0000420  87.6127 272.4942 15.76751367  4014
STARLINK-11277 [DTC]    
1 61205U 24171F   24288.71666295  .00002637  00000+0  20113-4 0  9993
2 61205  53.1579 175.9889 0001399  77.3366 282.7811 15.76723346  4138
STARLINK-11279 [DTC]    
1 61206U 24171G   24288.07792289 -.00004557  00000+0 -23857-4 0  9999
2 61206  53.1570 179.1173 0001647  44.0099 316.1052 15.76722698  4938
STARLINK-11091 [DTC]    
1 61207U 24171H   24288.72154575  .00009658  00000+0  62945-4 0  9998
2 61207  53.1583 176.0214 0001036  81.2403 278.8735 15.76727031  4139
STARLINK-11291 [DTC]    
1 61208U 24171J   24288.70689584 -.00001983  00000+0 -81264-5 0  9991
2 61208  53.1576 175.9256 0000825  96.8246 263.2869 15.76723627  4131
STARLINK-11304 [DTC]    
1 61209U 24171K   24288.70201406 -.00000612  00000+0  25095-6 0  9993
2 61209  53.1583 175.8921 0000787  65.3509 294.7594 15.76724437  5043
STARLINK-11307 [DTC]    
1 61210U 24171L   24288.19003721  .00005192  00000+0  35683-4 0  9997
2 61210  53.1588 178.3874 0001564  66.5110 293.6075 15.76744237  4052
STARLINK-11298 [DTC]    
1 61211U 24171M   24288.69224738 -.00001118  00000+0 -28381-5 0  9990
2 61211  53.1586 175.8282 0000743  95.0337 265.0769 15.76721361  4137
STARLINK-11310 [DTC]    
1 61212U 24171N   24287.99012381  .00010631  00000+0  68893-4 0  9991
2 61212  53.1583 179.2675 0000984 129.2786 230.8323 15.76719974  4025
STARLINK-32386          
1 61213U 24171P   24288.91667824 -.01562118  00000+0 -31444-1 0  9997
2 61213  53.1601 177.0343 0001189  86.6382  44.9267 15.49038115  5091
STARLINK-32392          
1 61214U 24171Q   24288.91667824 -.01536985  00000+0 -34701-1 0  9990
2 61214  53.1605 177.0401 0001123  86.9331  41.2617 15.45710040  5095
STARLINK-32436          
1 61215U 24171R   24288.91667824 -.01537426  00000+0 -32639-1 0  9990
2 61215  53.1605 177.0336 0001392  74.5865  57.0507 15.47477021  5090
STARLINK-32425          
1 61216U 24171S   24288.91667824 -.01534814  00000+0 -42690-1 0  9997
2 61216  53.1604 177.1271 0001094  68.7233  15.5971 15.39544396  5097
STARLINK-32342          
1 61217U 24171T   24288.91667824 -.01535199  00000+0 -36830-1 0  9994
2 61217  53.1604 177.0495 0001224  74.6035  48.5888 15.43939538  5090
STARLINK-32423          
1 61218U 24171U   24288.91667824 -.01535819  00000+0 -41046-1 0  9999
2 61218  53.1606 177.0948 0001274  73.3420  27.0223 15.40744632  5096
STARLINK-32248          
1 61219U 24171V   24288.91667824 -.00061951  00000+0 -11134-2 0  9996
2 61219  53.1599 177.0105 0001258  72.5773  70.5408 15.49340299  5095
KINEIS-3C               
1 61220U 24172A   24288.83358338  .00007862  00000+0  11126-2 0  9997
2 61220  98.0176  15.1594 0000406 301.8966  58.2205 14.77356019  3527
KINEIS-3D               
1 61221U 24172B   24288.83240700  .00007932  00000+0  11202-2 0  9994
2 61221  98.0176  15.1612 0000726 271.7696  88.3431 14.77439203  3521
KINEIS-3E               
1 61222U 24172C   24288.83106037  .00007800  00000+0  10998-2 0  9994
2 61222  98.0177  15.1635 0000697 151.2492 208.8756 14.77513179  3525
KINEIS-3A               
1 61223U 24172D   24288.89418999  .00007636  00000+0  10696-2 0  9996
2 61223  98.0176  15.2366 0001970 220.3325 139.7739 14.77801550  3532
KINEIS-3B               
1 61224U 24172E   24288.89179849  .00007709  00000+0  10760-2 0  9998
2 61224  98.0177  15.2398 0002399 192.8475 167.2675 14.77950673  3529
2024-172G               
1 61226U 24172G   24288.89620564  .00007549  00000+0  76123-3 0  9993
2 61226  98.0142  15.7004 0055720 331.4605  28.3564 14.90250169  3515
2024-173A               
1 61227U 24173A   24288.88615493  .00030675  00000+0  11993-2 0  9998
2 61227  97.4068   1.4752 0011517 196.1278 163.9595 15.25738402  3156
2024-173B               
1 61228U 24173B   24288.88208713  .00038655  00000+0  14893-2 0  9990
2 61228  97.4035   1.4725 0012367 201.1605 158.9123 15.26165813  3158
2024-173C               
1 61229U 24173C   24288.88443346  .00032724  00000+0  12770-2 0  9997
2 61229  97.4044   1.4712 0011940 200.5842 159.4916 15.25782142  3152
2024-173D               
1 61230U 24173D   24288.88299299  .00034548  00000+0  13377-2 0  9995
2 61230  97.4051   1.4749 0011962 203.0318 157.0386 15.26030418  3150
2024-173E               
1 61231U 24173E   24288.56356050  .00005863  00000+0  24096-3 0  9999
2 61231  97.3977   1.1209 0012605 198.1958 161.8830 15.24493504  3046
2024-173F               
1 61232U 24173F   24288.88187049  .00034066  00000+0  13183-2 0  9996
2 61232  97.4055   1.4776 0012163 203.0361 157.0333 15.26050373  3118
2024-173G               
1 61233U 24173G   24288.87739659  .00043980  00000+0  16680-2 0  9996
2 61233  97.4041   1.4793 0012215 206.1933 153.8689 15.26660212  3117
2024-173H               
1 61234U 24173H   24288.87548780  .00048675  00000+0  18288-2 0  9992
2 61234  97.4055   1.4854 0012246 206.9688 153.0916 15.26945524  3117
2024-173K               
1 61236U 24173K   24288.85793394  .00040124  00000+0  14565-2 0  9990
2 61236  97.4407   1.6171 0020549 225.7341 134.2213 15.27999032  3175
2024-173L               
1 61237U 24173L   24288.86048560  .00035335  00000+0  85609-3 0  9996
2 61237  97.6776   2.6486 0085725 240.7753 118.4898 15.37189325  3224
2024-174A               
1 61238U 24174A   24288.88509555  .00010271  00000+0  52409-3 0  9990
2 61238  97.4564 293.8412 0014234 213.1047 146.9296 15.16830753  3029
2024-174B               
1 61239U 24174B   24288.88577659  .00011884  00000+0  60543-3 0  9990
2 61239  97.4556 293.8382 0014666 209.6348 150.4056 15.16841635  3014
2024-174C               
1 61240U 24174C   24288.89158402  .00009940  00000+0  51469-3 0  9991
2 61240  97.4506 293.8186 0014254 204.3776 155.6785 15.16322501  2980
2024-174D               
1 61241U 24174D   24288.88809621  .00011905  00000+0  60965-3 0  9992
2 61241  97.4529 293.8286 0014409 206.7614 153.2877 15.16662104  2988
2024-174E               
1 61242U 24174E   24288.88783574  .00011329  00000+0  58088-3 0  9994
2 61242  97.4573 293.8398 0015371 207.9390 152.1020 15.16619390  2971
STARLINK-11300 [DTC]    
1 61243U 24175A   24288.84839358  .00114423  00000+0  69273-3 0  9991
2 61243  53.1544  55.9666 0001035  70.5447 289.5686 15.76761420  3111
STARLINK-11276 [DTC]    
1 61244U 24175B   24288.90689705  .00145945  00000+0  87846-3 0  9997
2 61244  53.1558  55.6207 0000567  91.0207 269.0879 15.76780509  3123
STARLINK-11280 [DTC]    
1 61245U 24175C   24288.89713119  .00121915  00000+0  73738-3 0  9999
2 61245  53.1559  55.5570 0000884  66.2913 293.8201 15.76755314  3127
STARLINK-11308 [DTC]    
1 61246U 24175D   24288.90201243  .00169553  00000+0  10173-2 0  9995
2 61246  53.1548  55.5869 0001249  71.9053 288.2104 15.76775716  3129
STARLINK-11305 [DTC]    
1 61247U 24175E   24288.89224527  .00121189  00000+0  73245-3 0  9997
2 61247  53.1543  55.5225 0000472 112.1879 247.9192 15.76774514  3126
STARLINK-11317 [DTC]    
1 61248U 24175F   24288.88736219  .00041674  00000+0  25719-3 0  9996
2 61248  53.1553  55.4908 0000581  89.1772 270.9315 15.76744335  3122
STARLINK-11293 [DTC]    
1 61249U 24175G   24288.88247712  .00070579  00000+0  43078-3 0  9996
2 61249  53.1559  55.4597 0001142  61.9724 298.1412 15.76774596  3124
STARLINK-11334 [DTC]    
1 61250U 24175H   24288.75001157  .00348082  00000+0  15171-2 0  9994
2 61250  53.1635  55.8691 0002928  24.6446  67.5108 15.83281935  4017
STARLINK-11319 [DTC]    
1 61251U 24175J   24288.86947509  .00003464  00000+0  23781-4 0  9997
2 61251  53.1640  55.3746 0001271  66.9095 293.2061 15.78066185  3128
STARLINK-11318 [DTC]    
1 61252U 24175K   24288.86220007  .00007503  00000+0  44671-4 0  9994
2 61252  53.1635  55.3265 0001103 106.2822 253.8322 15.79224391  4296
STARLINK-11311 [DTC]    
1 61253U 24175L   24288.85539903  .00005060  00000+0  29814-4 0  9990
2 61253  53.1636  55.2798 0001360  61.4764 298.6395 15.80370690  4338
STARLINK-11306 [DTC]    
1 61254U 24175M   24288.78582381 -.00005095  00000+0 -21639-4 0  9998
2 61254  53.1641  55.5544 0001266  80.7044 279.4122 15.81473173  4311
